{
  "norad_id": 48133,
  "name": "STARLINK-2475",
  "history": [
    {
      "epoch": "2026-03-28T16:25:29.034048Z",
      "apogee_km": 476.29799906836706,
      "perigee_km": 474.1309693290632,
      "latitude_deg": -7.092689026045329e-06,
      "longitude_deg": 4.63014391239918,
      "height_km": 476.21707911890684,
      "semi_major_axis_km": 6853.351484198715,
      "eccentricity": 0.0001581,
      "inclination_deg": 53.1615,
      "raan_deg": 77.1024,
      "arg_perigee_deg": 95.5495,
      "mean_anomaly_deg": 264.5686,
      "mean_motion_rev_day": 15.30200196
    },
    {
      "epoch": "2026-03-29T03:23:51.099360Z",
      "apogee_km": 476.0508889508101,
      "perigee_km": 474.32933318051073,
      "latitude_deg": -1.6328274553762575e-05,
      "longitude_deg": -162.53793853497123,
      "height_km": 476.27754668601915,
      "semi_major_axis_km": 6853.32711106566,
      "eccentricity": 0.0001256,
      "inclination_deg": 53.1615,
      "raan_deg": 74.9769,
      "arg_perigee_deg": 102.693,
      "mean_anomaly_deg": 257.4211,
      "mean_motion_rev_day": 15.30208359
    }
  ]
}